{
  "type": "FeatureCollection",
  "features": [
    {
      "type": "Feature",
      "properties": {
        "norad_id": 64694,
        "name": "GOSAT-GW (IBUKI GW)",
        "group": "resource",
        "lat": 1.252051556902908,
        "lon": 111.14137804128137,
        "alt_km": 671.7840294227308,
        "timestamp": "2025-12-21T14:40:47.568736+00:00",
        "meta_object_name": "GOSAT-GW (IBUKI GW)",
        "meta_object_id": "2025-141A",
        "meta_epoch": "2025-12-21T05:41:13.020000",
        "meta_mean_motion": 14.67560133,
        "meta_eccentricity": 0.00014104,
        "meta_inclination": 98.0434,
        "meta_ra_of_asc_node": 290.5964,
        "meta_arg_of_pericenter": 85.0423,
        "meta_mean_anomaly": 275.0943,
        "meta_ephemeris_type": 0,
        "meta_classification_type": "U",
        "meta_norad_cat_id": 64694,
        "meta_element_set_no": 999,
        "meta_rev_at_epoch": 2574,
        "meta_bstar": 0.00010352218,
        "meta_mean_motion_dot": 5.4e-06,
        "meta_mean_motion_ddot": 0,
        "tle_line1": "1 64694U 25141A   25355.23695625  .00000540  00000+0  10352-3 0  9992",
        "tle_line2": "2 64694  98.0434 290.5964 0001410  85.0423 275.0943 14.67560133 25746"
      },
      "geometry": {
        "type": "Point",
        "coordinates": [
          111.14137804128137,
          1.252051556902908
        ]
      }
    },
    {
      "type": "Feature",
      "properties": {
        "norad_id": 64876,
        "name": "IONOSFERA-M 3",
        "group": "resource",
        "lat": 29.07635146524878,
        "lon": 142.04242490497964,
        "alt_km": 819.4146988571529,
        "timestamp": "2025-12-21T14:40:47.568746+00:00",
        "meta_object_name": "IONOSFERA-M 3",
        "meta_object_id": "2025-155A",
        "meta_epoch": "2025-12-21T07:13:01.186752",
        "meta_mean_motion": 14.2144297,
        "meta_eccentricity": 0.00019894,
        "meta_inclination": 98.5795,
        "meta_ra_of_asc_node": 316.9249,
        "meta_arg_of_pericenter": 46.2096,
        "meta_mean_anomaly": 313.9246,
        "meta_ephemeris_type": 0,
        "meta_classification_type": "U",
        "meta_norad_cat_id": 64876,
        "meta_element_set_no": 999,
        "meta_rev_at_epoch": 2113,
        "meta_bstar": 4.1526484e-05,
        "meta_mean_motion_dot": 4.8e-07,
        "meta_mean_motion_ddot": 0,
        "tle_line1": "1 64876U 25155A   25355.30070818  .00000048  00000+0  41526-4 0  9999",
        "tle_line2": "2 64876  98.5795 316.9249 0001989  46.2096 313.9246 14.21442970 21133"
      },
      "geometry": {
        "type": "Point",
        "coordinates": [
          142.04242490497964,
          29.07635146524878
        ]
      }
    },
    {
      "type": "Feature",
      "properties": {
        "norad_id": 64877,
        "name": "IONOSFERA-M 4",
        "group": "resource",
        "lat": -28.63340851708888,
        "lon": -38.12573710088906,
        "alt_km": 826.1573745719006,
        "timestamp": "2025-12-21T14:40:47.568756+00:00",
        "meta_object_name": "IONOSFERA-M 4",
        "meta_object_id": "2025-155B",
        "meta_epoch": "2025-12-21T06:22:08.560704",
        "meta_mean_motion": 14.21444094,
        "meta_eccentricity": 0.00013966,
        "meta_inclination": 98.5793,
        "meta_ra_of_asc_node": 316.81,
        "meta_arg_of_pericenter": 55.2319,
        "meta_mean_anomaly": 304.899,
        "meta_ephemeris_type": 0,
        "meta_classification_type": "U",
        "meta_norad_cat_id": 64877,
        "meta_element_set_no": 999,
        "meta_rev_at_epoch": 2112,
        "meta_bstar": 3.9935793e-05,
        "meta_mean_motion_dot": 4.5e-07,
        "meta_mean_motion_ddot": 0,
        "tle_line1": "1 64877U 25155B   25355.26537686  .00000045  00000+0  39936-4 0  9995",
        "tle_line2": "2 64877  98.5793 316.8100 0001396  55.2319 304.8990 14.21444094 21120"
      },
      "geometry": {
        "type": "Point",
        "coordinates": [
          -38.12573710088906,
          -28.63340851708888
        ]
      }
    },
    {
      "type": "Feature",
      "properties": {
        "norad_id": 64899,
        "name": "MICROCARB",
        "group": "resource",
        "lat": -59.24916196706848,
        "lon": 84.49018163209574,
        "alt_km": 673.9250525390926,
        "timestamp": "2025-12-21T14:40:47.568766+00:00",
        "meta_object_name": "MICROCARB",
        "meta_object_id": "2025-156A",
        "meta_epoch": "2025-12-21T05:09:56.513088",
        "meta_mean_motion": 14.7206992,
        "meta_eccentricity": 0.00175355,
        "meta_inclination": 98.0016,
        "meta_ra_of_asc_node": 70.4245,
        "meta_arg_of_pericenter": 119.2699,
        "meta_mean_anomaly": 241.0264,
        "meta_ephemeris_type": 0,
        "meta_classification_type": "U",
        "meta_norad_cat_id": 64899,
        "meta_element_set_no": 999,
        "meta_rev_at_epoch": 2178,
        "meta_bstar": 9.7828994e-05,
        "meta_mean_motion_dot": 5.67e-06,
        "meta_mean_motion_ddot": 0,
        "tle_line1": "1 64899U 25156A   25355.21523742  .00000567  00000+0  97829-4 0  9997",
        "tle_line2": "2 64899  98.0016  70.4245 0017535 119.2699 241.0264 14.72069920 21789"
      },
      "geometry": {
        "type": "Point",
        "coordinates": [
          84.49018163209574,
          -59.24916196706848
        ]
      }
    },
    {
      "type": "Feature",
      "properties": {
        "norad_id": 64900,
        "name": "CO3D 3",
        "group": "resource",
        "lat": 74.31834759909049,
        "lon": 44.134148521274675,
        "alt_km": 497.20136285325134,
        "timestamp": "2025-12-21T14:40:47.568776+00:00",
        "meta_object_name": "CO3D 3",
        "meta_object_id": "2025-156B",
        "meta_epoch": "2025-12-21T06:26:51.014400",
        "meta_mean_motion": 15.20210369,
        "meta_eccentricity": 0.0001338,
        "meta_inclination": 97.4343,
        "meta_ra_of_asc_node": 71.5137,
        "meta_arg_of_pericenter": 79.6082,
        "meta_mean_anomaly": 280.5304,
        "meta_ephemeris_type": 0,
        "meta_classification_type": "U",
        "meta_norad_cat_id": 64900,
        "meta_element_set_no": 999,
        "meta_rev_at_epoch": 2250,
        "meta_bstar": 0.00020596331,
        "meta_mean_motion_dot": 4.395e-05,
        "meta_mean_motion_ddot": 0,
        "tle_line1": "1 64900U 25156B   25355.26864600  .00004395  00000+0  20596-3 0  9995",
        "tle_line2": "2 64900  97.4343  71.5137 0001338  79.6082 280.5304 15.20210369 22502"
      },
      "geometry": {
        "type": "Point",
        "coordinates": [
          44.134148521274675,
          74.31834759909049
        ]
      }
    },
    {
      "type": "Feature",
      "properties": {
        "norad_id": 64901,
        "name": "CO3D 4",
        "group": "resource",
        "lat": 73.52853455484755,
        "lon": 45.644475510110084,
        "alt_km": 498.22093476773443,
        "timestamp": "2025-12-21T14:40:47.568786+00:00",
        "meta_object_name": "CO3D 4",
        "meta_object_id": "2025-156C",
        "meta_epoch": "2025-12-21T06:27:04.514400",
        "meta_mean_motion": 15.20200918,
        "meta_eccentricity": 0.00012501,
        "meta_inclination": 97.4342,
        "meta_ra_of_asc_node": 71.514,
        "meta_arg_of_pericenter": 167.6854,
        "meta_mean_anomaly": 192.4412,
        "meta_ephemeris_type": 0,
        "meta_classification_type": "U",
        "meta_norad_cat_id": 64901,
        "meta_element_set_no": 999,
        "meta_rev_at_epoch": 2250,
        "meta_bstar": 0.0002062152,
        "meta_mean_motion_dot": 4.399e-05,
        "meta_mean_motion_ddot": 0,
        "tle_line1": "1 64901U 25156C   25355.26880225  .00004399  00000+0  20622-3 0  9991",
        "tle_line2": "2 64901  97.4342  71.5140 0001250 167.6854 192.4412 15.20200918 22504"
      },
      "geometry": {
        "type": "Point",
        "coordinates": [
          45.644475510110084,
          73.52853455484755
        ]
      }
    },
    {
      "type": "Feature",
      "properties": {
        "norad_id": 64902,
        "name": "CO3D 2",
        "group": "resource",
        "lat": -75.71450329691284,
        "lon": -139.09934882996964,
        "alt_km": 513.070998112612,
        "timestamp": "2025-12-21T14:40:47.568796+00:00",
        "meta_object_name": "CO3D 2",
        "meta_object_id": "2025-156D",
        "meta_epoch": "2025-12-21T05:39:02.619072",
        "meta_mean_motion": 15.20198579,
        "meta_eccentricity": 8.021e-05,
        "meta_inclination": 97.434,
        "meta_ra_of_asc_node": 71.3801,
        "meta_arg_of_pericenter": 63.6019,
        "meta_mean_anomaly": 296.5298,
        "meta_ephemeris_type": 0,
        "meta_classification_type": "U",
        "meta_norad_cat_id": 64902,
        "meta_element_set_no": 999,
        "meta_rev_at_epoch": 2249,
        "meta_bstar": 0.00096416086,
        "meta_mean_motion_dot": 0.00020861,
        "meta_mean_motion_ddot": 0,
        "tle_line1": "1 64902U 25156D   25355.23544698  .00020861  00000+0  96416-3 0  9996",
        "tle_line2": "2 64902  97.4340  71.3801 0000802  63.6019 296.5298 15.20198579 22490"
      },
      "geometry": {
        "type": "Point",
        "coordinates": [
          -139.09934882996964,
          -75.71450329691284
        ]
      }
    }
  ]
}